NORAD_CAT_ID,OBJECT_NAME,OBJECT_TYPE,EPOCH,MEAN_MOTION,ECCENTRICITY,INCLINATION,RA_OF_ASC_NODE,ARG_OF_PERICENTER,MEAN_ANOMALY,BSTAR,MEAN_MOTION_DOT,MEAN_MOTION_DDOT,TLE_LINE0,TLE_LINE1,TLE_LINE2,SEMIMAJOR_AXIS,PERIOD,APOGEE,PERIGEE,DECAYED
54160.0,STARLINK-5233,PAYLOAD,2023-07-18 20:50:14,15.08859678,0.0001332,53.2178,340.3453,77.3253,282.7888,0.00016673,2.368e-05,0.0,0 STARLINK-5233,1 54160U 22141D   23199.86822138  .00002368  00000-0  16673-3 0  9993,2 54160  53.2178 340.3453 0001332  77.3253 282.7888 15.08859678 40691,6917.82,95.436,540.607,538.764,0.0
54160.0,STARLINK-5233,PAYLOAD,2023-07-19 09:33:21,15.08822051,0.0001132,53.2185,337.9658,85.6191,274.493,-2.0301e-05,-6.11e-06,0.0,0 STARLINK-5233,1 54160U 22141D   23200.39817068 -.00000611  00000-0 -20301-4 0  9995,2 54160  53.2185 337.9658 0001132  85.6191 274.4930 15.08822051 40779,6917.935,95.439,540.583,539.017,0.0
54160.0,STARLINK-5233,PAYLOAD,2023-07-20 18:56:26,15.08851393,0.0001173,53.2179,331.7192,100.5494,259.5631,-8.5912e-05,-1.655e-05,0.0,0 STARLINK-5233,1 54160U 22141D   23201.78919805 -.00001655  00000-0 -85912-4 0  9999,2 54160  53.2179 331.7192 0001173 100.5494 259.5631 15.08851393 40981,6917.846,95.437,540.522,538.899,0.0
54160.0,STARLINK-5233,PAYLOAD,2023-07-21 09:14:55,15.08831335,0.0001843,53.2181,329.0492,57.7082,302.4089,0.00010516,1.386e-05,0.0,0 STARLINK-5233,1 54160U 22141D   23202.38536614  .00001386  00000-0  10516-3 0  9995,2 54160  53.2181 329.0492 0001843  57.7082 302.4089 15.08831335 41077,6917.907,95.438,541.047,538.497,0.0
54160.0,STARLINK-5233,PAYLOAD,2023-07-23 16:53:25,15.08841305,0.0001222,53.218,318.639,98.023,262.0901,-3.2109e-05,-7.99e-06,0.0,0 STARLINK-5233,1 54160U 22141D   23204.70376659 -.00000799  00000-0 -32109-4 0  9996,2 54160  53.2180 318.6390 0001222  98.0230 262.0901 15.08841305 41422,6917.876,95.437,540.587,538.896,0.0
54160.0,STARLINK-5233,PAYLOAD,2023-07-25 11:48:50,15.08836233,0.0001058,53.2179,310.6093,90.4654,269.6459,-1.8679e-05,-5.85e-06,0.0,0 STARLINK-5233,1 54160U 22141D   23206.49224845 -.00000585  00000-0 -18679-4 0  9992,2 54160  53.2179 310.6093 0001058  90.4654 269.6459 15.08836233 41699,6917.892,95.438,540.489,539.025,0.0
54160.0,STARLINK-5233,PAYLOAD,2023-07-26 10:04:13,15.08836571,0.0001274,53.2154,306.4483,79.7425,280.3711,3.0482e-05,1.97e-06,0.0,0 STARLINK-5233,1 54160U 22141D   23207.41960592  .00000197  00000-0  30482-4 0  9994,2 54160  53.2154 306.4483 0001274  79.7425 280.3711 15.08836571 41836,6917.891,95.438,540.637,538.875,0.0
54160.0,STARLINK-5233,PAYLOAD,2023-07-26 16:25:45,15.08844851,0.0001217,53.2169,305.2585,81.3075,278.8054,0.00010381,1.365e-05,0.0,0 STARLINK-5233,1 54160U 22141D   23207.68455781  .00001365  00000-0  10381-3 0  9995,2 54160  53.2169 305.2585 0001217  81.3075 278.8054 15.08844851 41875,6917.866,95.437,540.572,538.889,0.0
54160.0,STARLINK-5233,PAYLOAD,2023-07-27 06:44:14,15.08837267,0.0001116,53.2157,302.5821,81.8541,278.2578,-9.9629e-06,-4.46e-06,0.0,0 STARLINK-5233,1 54160U 22141D   23208.28072640 -.00000446  00000-0 -99629-5 0  9996,2 54160  53.2157 302.5821 0001116  81.8541 278.2578 15.08837267 41964,6917.889,95.438,540.526,538.982,0.0
54160.0,STARLINK-5233,PAYLOAD,2023-07-27 17:51:56,15.08840716,0.0001524,53.2161,300.5009,70.6891,289.4265,2.1182e-05,4.9e-07,0.0,0 STARLINK-5233,1 54160U 22141D   23208.74440378  .00000049  00000-0  21182-4 0  9999,2 54160  53.2161 300.5009 0001524  70.6891 289.4265 15.08840716 42031,6917.878,95.438,540.797,538.689,0.0
54160.0,STARLINK-5233,PAYLOAD,2023-07-27 22:38:07,15.08826392,0.0003018,53.2156,299.6027,72.8813,287.2509,-0.00014105,-2.532e-05,0.0,0 STARLINK-5233,1 54160U 22141D   23208.94314099 -.00002532  00000-0 -14105-3 0  9998,2 54160  53.2156 299.6027 0003018  72.8813 287.2509 15.08826392 42065,6917.922,95.438,541.875,537.699,0.0
54160.0,STARLINK-5233,PAYLOAD,2023-07-28 17:42:43,15.08849846,8.89e-05,53.2164,296.0375,94.5383,265.5711,5.9723e-05,6.63e-06,0.0,0 STARLINK-5233,1 54160U 22141D   23209.73799956  .00000663  00000-0  59723-4 0  9992,2 54160  53.2164 296.0375 0000889  94.5383 265.5711 15.08849846 42183,6917.85,95.437,540.33,539.1,0.0
54160.0,STARLINK-5233,PAYLOAD,2023-07-28 22:28:53,15.08837498,7.03e-05,53.2169,295.1475,85.1087,274.9985,-0.00011925,-2.185e-05,0.0,0 STARLINK-5233,1 54160U 22141D   23209.93673278 -.00002185  00000-0 -11925-3 0  9996,2 54160  53.2169 295.1475 0000703  85.1087 274.9985 15.08837498 42212,6917.888,95.438,540.239,539.267,0.0
54160.0,STARLINK-5233,PAYLOAD,2023-07-29 15:58:07,15.08844248,0.0001074,53.2165,291.8745,81.3589,278.7524,3.9309e-05,3.38e-06,0.0,0 STARLINK-5233,1 54160U 22141D   23210.66536436  .00000338  00000-0  39309-4 0  9995,2 54160  53.2165 291.8745 0001074  81.3589 278.7524 15.08844248 42322,6917.867,95.437,540.475,538.989,0.0
54160.0,STARLINK-5233,PAYLOAD,2023-07-30 11:02:46,15.08831186,0.0001172,53.2169,288.3089,70.4337,289.6782,-6.8065e-05,-1.371e-05,0.0,0 STARLINK-5233,1 54160U 22141D   23211.46026259 -.00001371  00000-0 -68065-4 0  9992,2 54160  53.2169 288.3089 0001172  70.4337 289.6782 15.08831186 42444,6917.907,95.438,540.583,538.962,0.0
54160.0,STARLINK-5233,PAYLOAD,2023-07-30 14:13:32,15.08838142,0.0001052,53.2162,287.7135,79.2496,280.8614,8.6203e-06,-1.51e-06,0.0,0 STARLINK-5233,1 54160U 22141D   23211.59273472 -.00000151  00000-0  86203-5 0  9996,2 54160  53.2162 287.7135 0001052  79.2496 280.8614 15.08838142 42460,6917.886,95.438,540.479,539.023,0.0
54160.0,STARLINK-5233,PAYLOAD,2023-07-31 10:53:32,15.08846329,0.0001439,53.2165,283.8474,121.1462,238.9672,0.00010389,1.366e-05,0.0,0 STARLINK-5233,1 54160U 22141D   23212.45384549  .00001366  00000-0  10389-3 0  9998,2 54160  53.2165 283.8474 0001439 121.1462 238.9672 15.08846329 42593,6917.861,95.437,540.722,538.731,0.0
54160.0,STARLINK-5233,PAYLOAD,2023-07-31 22:01:14,15.08840337,0.0001265,53.2167,281.7645,77.3968,282.7166,-4.3026e-05,-9.73e-06,0.0,0 STARLINK-5233,1 54160U 22141D   23212.91753358 -.00000973  00000-0 -43026-4 0  9997,2 54160  53.2167 281.7645 0001265  77.3968 282.7166 15.08840337 42668,6917.879,95.438,540.619,538.869,0.0
54160.0,STARLINK-5233,PAYLOAD,2023-08-01 10:44:20,15.08834693,0.0001203,53.2159,279.3858,80.501,279.6118,-6.0583e-06,-3.84e-06,0.0,0 STARLINK-5233,1 54160U 22141D   23213.44745778 -.00000384  00000-0 -60583-5 0  9997,2 54160  53.2159 279.3858 0001203  80.5010 279.6118 15.08834693 42743,6917.897,95.438,540.594,538.929,0.0
54160.0,STARLINK-5233,PAYLOAD,2023-08-02 10:35:06,15.08844205,0.0001167,53.2154,274.9251,78.4144,281.6979,1.0115e-06,-2.72e-06,0.0,0 STARLINK-5233,1 54160U 22141D   23214.44105122 -.00000272  00000-0  10115-5 0  9992,2 54160  53.2154 274.9251 0001167  78.4144 281.6979 15.08844205 42893,6917.868,95.437,540.54,538.925,0.0
54160.0,STARLINK-5233,PAYLOAD,2023-08-03 10:25:54,15.08837603,0.0001258,53.2162,270.4644,80.6276,279.4858,1.8952e-05,1.4e-07,0.0,0 STARLINK-5233,1 54160U 22141D   23215.43465443  .00000014  00000-0  18952-4 0  9996,2 54160  53.2162 270.4644 0001258  80.6276 279.4858 15.08837603 43044,6917.888,95.438,540.623,538.882,0.0
54160.0,STARLINK-5233,PAYLOAD,2023-08-04 15:02:50,15.08836852,0.0001192,53.2157,265.1094,92.7683,267.3446,-3.2541e-05,-8.06e-06,0.0,0 STARLINK-5233,1 54160U 22141D   23216.62697812 -.00000806  00000-0 -32541-4 0  9996,2 54160  53.2157 265.1094 0001192  92.7683 267.3446 15.08836852 43225,6917.89,95.438,540.58,538.93,0.0
54160.0,STARLINK-5233,PAYLOAD,2023-08-05 08:32:04,15.08843335,0.0001174,53.2156,261.8395,83.7242,276.3884,3.9231e-05,3.37e-06,0.0,0 STARLINK-5233,1 54160U 22141D   23217.35561294  .00000337  00000-0  39231-4 0  9991,2 54160  53.2156 261.8395 0001174  83.7242 276.3884 15.08843335 43334,6917.87,95.437,540.547,538.923,0.0
54160.0,STARLINK-5233,PAYLOAD,2023-08-06 02:01:20,15.08831665,0.0001484,53.2159,258.5681,84.0063,276.1098,2.8682e-05,1.68e-06,0.0,0 STARLINK-5233,1 54160U 22141D   23218.08426085  .00000168  00000-0  28682-4 0  9990,2 54160  53.2159 258.5681 0001484  84.0063 276.1098 15.08831665 43447,6917.906,95.438,540.797,538.744,0.0
54160.0,STARLINK-5233,PAYLOAD,2023-08-06 13:09:01,15.08837821,0.0001111,53.2154,256.4883,91.0317,269.0803,4.241e-05,3.87e-06,0.0,0 STARLINK-5233,1 54160U 22141D   23218.54793645  .00000387  00000-0  42410-4 0  9998,2 54160  53.2154 256.4883 0001111  91.0317 269.0803 15.08837821 43513,6917.887,95.438,540.521,538.983,0.0
54160.0,STARLINK-5233,PAYLOAD,2023-08-06 19:30:34,15.08832873,0.0001144,53.2154,255.2992,89.6584,270.4539,-3.3297e-05,-8.18e-06,0.0,0 STARLINK-5233,1 54160U 22141D   23218.81290292 -.00000818  00000-0 -33297-4 0  9992,2 54160  53.2154 255.2992 0001144  89.6584 270.4539 15.08832873 43554,6917.902,95.438,540.559,538.976,0.0
54160.0,STARLINK-5233,PAYLOAD,2023-08-07 19:21:21,15.08864551,0.000109,53.2151,250.8385,102.19,257.9214,-0.000368,-6.144e-05,0.0,0 STARLINK-5233,1 54160U 22141D   23219.80649454 -.00006144  00000-0 -36800-3 0  9990,2 54160  53.2151 250.8385 0001090 102.1900 257.9214 15.08864551 43706,6917.805,95.436,540.424,538.916,0.0
54160.0,STARLINK-5233,PAYLOAD,2023-08-08 08:04:26,15.08840768,0.0001069,53.2149,248.4591,92.0728,268.0386,3.8626e-05,3.27e-06,0.0,0 STARLINK-5233,1 54160U 22141D   23220.33641790  .00000327  00000-0  38626-4 0  9999,2 54160  53.2149 248.4591 0001069  92.0728 268.0386 15.08840768 43781,6917.878,95.438,540.483,539.004,0.0
54160.0,STARLINK-5233,PAYLOAD,2023-08-09 07:55:14,15.0883258,0.0001068,53.2147,243.9969,93.1507,266.9607,-1.443e-05,-5.17e-06,0.0,0 STARLINK-5233,1 54160U 22141D   23221.33002635 -.00000517  00000-0 -14430-4 0  9999,2 54160  53.2147 243.9969 0001068  93.1507 266.9607 15.08832580 43937,6917.903,95.438,540.507,539.029,0.0
54160.0,STARLINK-5233,PAYLOAD,2023-08-10 07:46:00,15.08841745,9.77e-05,53.2154,239.5351,94.7521,265.3582,2.6963e-05,1.41e-06,0.0,0 STARLINK-5233,1 54160U 22141D   23222.32361891  .00000141  00000-0  26963-4 0  9996,2 54160  53.2154 239.5351 0000977  94.7521 265.3582 15.08841745 44087,6917.875,95.437,540.416,539.064,0.0
